NORAD_CAT_ID,OBJECT_NAME,OBJECT_TYPE,EPOCH,MEAN_MOTION,ECCENTRICITY,INCLINATION,RA_OF_ASC_NODE,ARG_OF_PERICENTER,MEAN_ANOMALY,BSTAR,MEAN_MOTION_DOT,MEAN_MOTION_DDOT,TLE_LINE0,TLE_LINE1,TLE_LINE2,SEMIMAJOR_AXIS,PERIOD,APOGEE,PERIGEE,DECAYED
50829.0,STARLINK-3294,PAYLOAD,2022-07-02 04:06:02,15.08842027,0.0002303,53.2182,93.8761,63.9607,296.1623,2.8844e-06,-2.42e-06,0.0,0 STARLINK-3294,1 50829U 22001AC  22183.17086495 -.00000242  00000-0  28844-5 0  9995,2 50829  53.2182  93.8761 0002303  63.9607 296.1623 15.08842027 28398,6917.874,95.437,541.332,538.146,0.0
50829.0,STARLINK-3294,PAYLOAD,2022-07-02 21:35:16,15.08855321,0.0002301,53.2183,90.6051,64.3186,295.8044,3.2738000000000004e-05,2.33e-06,0.0,0 STARLINK-3294,1 50829U 22001AC  22183.89949134  .00000233  00000-0  32738-4 0  9997,2 50829  53.2183  90.6051 0002301  64.3186 295.8044 15.08855321 28508,6917.834,95.437,541.29,538.107,0.0
50829.0,STARLINK-3294,PAYLOAD,2022-07-03 10:18:21,15.08848029,0.0002305,53.2182,88.2266,63.1125,297.0103,-2.645e-05,-7.09e-06,0.0,0 STARLINK-3294,1 50829U 22001AC  22184.42941442 -.00000709  00000-0 -26450-4 0  9995,2 50829  53.2182  88.2266 0002305  63.1125 297.0103 15.08848029 27317,6917.856,95.437,541.315,538.126,0.0
50829.0,STARLINK-3294,PAYLOAD,2022-07-03 21:26:03,15.08845705,0.0002137,53.218,86.145,64.0478,296.0735,3.7982e-05,3.16e-06,0.0,0 STARLINK-3294,1 50829U 22001AC  22184.89309169  .00000316  00000-0  37982-4 0  9994,2 50829  53.2180  86.1450 0002137  64.0478 296.0735 15.08845705 27386,6917.863,95.437,541.206,538.25,0.0
50829.0,STARLINK-3294,PAYLOAD,2022-07-04 03:47:37,15.0882326,0.0002172,53.2181,84.9557,62.2553,297.8659,-0.00014651,-2.618e-05,0.0,0 STARLINK-3294,1 50829U 22001AC  22185.15807225 -.00002618  00000-0 -14651-3 0  9996,2 50829  53.2181  84.9557 0002172  62.2553 297.8659 15.08823260 28695,6917.932,95.439,541.299,538.294,0.0
50829.0,STARLINK-3294,PAYLOAD,2022-07-04 10:09:10,15.08821001,0.0002152,53.2178,83.7671,62.8069,297.3143,-0.00016325,-2.884e-05,0.0,0 STARLINK-3294,1 50829U 22001AC  22185.42303641 -.00002884  00000-0 -16325-3 0  9994,2 50829  53.2178  83.7671 0002152  62.8069 297.3143 15.08821001 27469,6917.938,95.439,541.2919999999998,538.315,0.0
50829.0,STARLINK-3294,PAYLOAD,2022-07-04 22:52:15,15.0883049,0.00021,53.2177,81.388,65.3773,294.7438,-0.00017487,-3.07e-05,0.0,0 STARLINK-3294,1 50829U 22001AC  22185.95295491 -.00003070  00000-0 -17487-3 0  9993,2 50829  53.2177  81.3880 0002100  65.3773 294.7438 15.08830490 27546,6917.909000000002,95.438,541.227,538.322,0.0
50829.0,STARLINK-3294,PAYLOAD,2022-07-05 03:38:24,15.08831149,0.0002107,53.2184,80.4949,64.4874,295.6335,-0.00013215,-2.39e-05,0.0,0 STARLINK-3294,1 50829U 22001AC  22186.15167440 -.00002390  00000-0 -13215-3 0  9997,2 50829  53.2184  80.4949 0002107  64.4874 295.6335 15.08831149 28841,6917.906999999997,95.438,541.23,538.315,0.0
50829.0,STARLINK-3294,PAYLOAD,2022-07-05 09:59:57,15.08828605,0.0002048,53.2182,79.3061,65.6475,294.473,-3.891e-05,-9.07e-06,0.0,0 STARLINK-3294,1 50829U 22001AC  22186.41663499 -.00000907  00000-0 -38910-4 0  9993,2 50829  53.2182  79.3061 0002048  65.6475 294.4730 15.08828605 27618,6917.915,95.438,541.197,538.363,0.0
50829.0,STARLINK-3294,PAYLOAD,2022-07-05 21:07:39,15.08832221,0.0002032,53.2184,77.2245,66.3097,293.8109,-9.6543e-06,-4.42e-06,0.0,0 STARLINK-3294,1 50829U 22001AC  22186.88031541 -.00000442  00000-0 -96543-5 0  9992,2 50829  53.2184  77.2245 0002032  66.3097 293.8109 15.08832221 27681,6917.904,95.438,541.175,538.363,0.0
50829.0,STARLINK-3294,PAYLOAD,2022-07-06 01:53:48,15.08835247,0.0002071,53.2184,76.3321,66.7459,293.3751,1.7172e-07,-2.86e-06,0.0,0 STARLINK-3294,1 50829U 22001AC  22187.07903502 -.00000286  00000-0  17172-6 0  9996,2 50829  53.2184  76.3321 0002071  66.7459 293.3751 15.08835247 28988,6917.895,95.438,541.193,538.327,0.0
50829.0,STARLINK-3294,PAYLOAD,2022-07-06 09:50:44,15.08833716,0.0002059,53.2184,74.8456,67.9718,292.1492,0.00010444,1.374e-05,0.0,0 STARLINK-3294,1 50829U 22001AC  22187.41023581  .00001374  00000-0  10444-3 0  9994,2 50829  53.2184  74.8456 0002059  67.9718 292.1492 15.08833716 27760,6917.9,95.438,541.189,538.34,0.0
50829.0,STARLINK-3294,PAYLOAD,2022-07-06 22:33:49,15.08834431,0.0002055,53.2184,72.4671,67.3601,292.7609,0.00021422,3.122e-05,0.0,0 STARLINK-3294,1 50829U 22001AC  22187.94015771  .00003122  00000-0  21422-3 0  9995,2 50829  53.2184  72.4671 0002055  67.3601 292.7609 15.08834431 27844,6917.897,95.438,541.184,538.341,0.0
50829.0,STARLINK-3294,PAYLOAD,2022-07-07 01:44:35,15.08838669,0.0002078,53.2184,71.8722,67.9401,292.1811,0.00022011,3.217e-05,0.0,0 STARLINK-3294,1 50829U 22001AC  22188.07263638  .00003217  00000-0  22011-3 0  9997,2 50829  53.2184  71.8722 0002078  67.9401 292.1811 15.08838669 27861,6917.884,95.438,541.187,538.312,0.0
50829.0,STARLINK-3294,PAYLOAD,2022-07-07 20:49:12,15.08854079,0.0002104,53.2184,68.3041,69.1677,290.954,0.00025589,3.788e-05,0.0,0 STARLINK-3294,1 50829U 22001AC  22188.86750646  .00003788  00000-0  25589-3 0  9990,2 50829  53.2184  68.3041 0002104  69.1677 290.9540 15.08854079 27986,6917.837,95.437,541.158,538.247,0.0
50829.0,STARLINK-3294,PAYLOAD,2022-07-08 01:35:22,15.08854603,0.0002065,53.2175,67.4118,69.4103,290.7111,0.00027182,4.042e-05,0.0,0 STARLINK-3294,1 50829U 22001AC  22189.06622954  .00004042  00000-0  27182-3 0  9998,2 50829  53.2175  67.4118 0002065  69.4103 290.7111 15.08854603 29284,6917.8359999999975,95.437,541.129,538.2719999999998,0.0
50829.0,STARLINK-3294,PAYLOAD,2022-07-08 09:32:17,15.08855462,0.0002067,53.2176,65.9253,70.2375,289.884,0.00022818,3.347e-05,0.0,0 STARLINK-3294,1 50829U 22001AC  22189.39742591  .00003347  00000-0  22818-3 0  9992,2 50829  53.2176  65.9253 0002067  70.2375 289.8840 15.08855462 28068,6917.833000000001,95.437,541.128,538.268,0.0
50829.0,STARLINK-3294,PAYLOAD,2022-07-08 20:39:58,15.08869119,0.0002027,53.2176,63.8434,68.322,291.7988,0.00034282,5.176e-05,0.0,0 STARLINK-3294,1 50829U 22001AC  22189.86109434  .00005176  00000-0  34282-3 0  9997,2 50829  53.2176  63.8434 0002027  68.3220 291.7988 15.08869119 28136,6917.791,95.436,541.059,538.254,0.0
50829.0,STARLINK-3294,PAYLOAD,2022-07-09 03:01:30,15.08863393,0.0001946,53.2171,62.6544,67.1291,292.9906,0.00014838,2.076e-05,0.0,0 STARLINK-3294,1 50829U 22001AC  22190.12605249  .00002076  00000-0  14838-3 0  9994,2 50829  53.2171  62.6544 0001946  67.1291 292.9906 15.08863393 29440,6917.809,95.436,541.02,538.328,0.0
50829.0,STARLINK-3294,PAYLOAD,2022-07-09 17:19:59,15.08847823,0.0002161,53.2183,59.9781,73.4313,286.6916,-0.00020143,-3.493e-05,0.0,0 STARLINK-3294,1 50829U 22001AC  22190.72221235 -.00003493  00000-0 -20143-3 0  9991,2 50829  53.2183  59.9781 0002161  73.4313 286.6916 15.08847823 28260,6917.856,95.437,541.216,538.227,0.0
50829.0,STARLINK-3294,PAYLOAD,2022-07-10 02:52:19,15.08813116,0.0001743,53.2177,58.1939,65.8411,294.2763,-0.00051529,-8.474e-05,0.0,0 STARLINK-3294,1 50829U 22001AC  22191.11967482 -.00008474  00000-0 -51529-3 0  9992,2 50829  53.2177  58.1939 0001743  65.8411 294.2763 15.08813116 29598,6917.9630000000025,95.439,541.033,538.622,0.0
50829.0,STARLINK-3294,PAYLOAD,2022-07-10 14:00:02,15.0881557,0.0001252999999999,53.2174,56.1103,84.161,275.9525,-0.00043925,-7.267e-05,0.0,0 STARLINK-3294,1 50829U 22001AC  22191.58335765 -.00007267  00000-0 -43925-3 0  9996,2 50829  53.2174  56.1103 0001253  84.1610 275.9525 15.08815570 28392,6917.955,95.439,540.687,538.953,0.0
50829.0,STARLINK-3294,PAYLOAD,2022-07-10 18:46:11,15.08825065,0.0001626,53.2175,55.2196,64.0149,296.101,-7.8358e-05,-1.534e-05,0.0,0 STARLINK-3294,1 50829U 22001AC  22191.78207548 -.00001534  00000-0 -78358-4 0  9995,2 50829  53.2175  55.2196 0001626  64.0149 296.1010 15.08825065 29691,6917.926,95.438,540.9159999999998,538.6659999999998,0.0
50829.0,STARLINK-3294,PAYLOAD,2022-07-11 02:43:07,15.08830947,0.0001468,53.2179,53.7332,60.1603,299.9535,0.0013695,0.00021569,0.0,0 STARLINK-3294,1 50829U 22001AC  22192.11328553  .00021569  00000-0  13695-2 0  9992,2 50829  53.2179  53.7332 0001468  60.1603 299.9535 15.08830947 28479,6917.908,95.438,540.789,538.758,0.0
50829.0,STARLINK-3294,PAYLOAD,2022-07-11 20:12:22,15.08852357,0.0001419999999999,53.2178,50.4626,59.9765,300.1368,0.0011139,0.0001749,0.0,0 STARLINK-3294,1 50829U 22001AC  22192.84192602  .00017490  00000-0  11139-2 0  9995,2 50829  53.2178  50.4626 0001420  59.9765 300.1368 15.08852357 29852,6917.843000000003,95.437,540.69,538.725,0.0
50829.0,STARLINK-3294,PAYLOAD,2022-07-12 07:20:03,15.08864253,0.0001416,53.2176,48.3811,61.2772,298.8362,0.0011270999999999,0.00017707,0.0,0 STARLINK-3294,1 50829U 22001AC  22193.30560158  .00017707  00000-0  11271-2 0  9990,2 50829  53.2176  48.3811 0001416  61.2772 298.8362 15.08864253 28653,6917.806,95.436,540.651,538.692,0.0
50829.0,STARLINK-3294,PAYLOAD,2022-07-12 20:03:08,15.08858836,0.0001383,53.2175,46.0025,64.0766,296.0369,0.00041525,6.330000000000001e-05,0.0,0 STARLINK-3294,1 50829U 22001AC  22193.83551656  .00006330  00000-0  41525-3 0  9997,2 50829  53.2175  46.0025 0001383  64.0766 296.0369 15.08858836 30000,6917.823,95.436,540.645,538.731,0.0
50829.0,STARLINK-3294,PAYLOAD,2022-07-13 13:32:22,15.08859176,0.0001384,53.2173,42.7313,64.1509,295.9626,0.00024904,3.68e-05,0.0,0 STARLINK-3294,1 50829U 22001AC  22194.56414921  .00003680  00000-0  24904-3 0  9998,2 50829  53.2173  42.7313 0001384  64.1509 295.9626 15.08859176 28849,6917.821999999999,95.436,540.644,538.729,0.0
50829.0,STARLINK-3294,PAYLOAD,2022-07-13 19:53:55,15.08851702,0.0001429,53.2175,41.5413,63.4093,296.7045,9.7832e-05,1.27e-05,0.0,0 STARLINK-3294,1 50829U 22001AC  22194.82911005  .00001270  00000-0  97832-4 0  9996,2 50829  53.2175  41.5413 0001429  63.4093 296.7045 15.08851702 30157,6917.845,95.437,540.698,538.721,0.0
